{
  "type": "FeatureCollection",
  "features": [
    {
      "type": "Feature",
      "properties": {
        "norad_id": 31033,
        "name": "FENGYUN 1C DEB",
        "group": "fengyun-1c-debris",
        "lat": 46.7318077024398,
        "lon": -35.725934741143156,
        "alt_km": 708.1252312799861,
        "timestamp": "2025-12-21T07:34:34.796673+00:00",
        "meta_object_name": "FENGYUN 1C DEB",
        "meta_object_id": "1999-025BEB",
        "meta_epoch": "2025-12-20T21:24:14.849856",
        "meta_mean_motion": 14.27460448,
        "meta_eccentricity": 0.01542442,
        "meta_inclination": 98.4391,
        "meta_ra_of_asc_node": 332.9391,
        "meta_arg_of_pericenter": 86.6713,
        "meta_mean_anomaly": 305.0657,
        "meta_ephemeris_type": 0,
        "meta_classification_type": "U",
        "meta_norad_cat_id": 31033,
        "meta_element_set_no": 999,
        "meta_rev_at_epoch": 97462,
        "meta_bstar": 0.0001451652,
        "meta_mean_motion_dot": 3.62e-06,
        "meta_mean_motion_ddot": 0,
        "tle_line1": "1 31033U 99025BEB 25354.89183854  .00000362  00000+0  14517-3 0  9991",
        "tle_line2": "2 31033  98.4391 332.9391 0154244  86.6713 305.0657 14.27460448974621"
      },
      "geometry": {
        "type": "Point",
        "coordinates": [
          -35.725934741143156,
          46.7318077024398
        ]
      }
    },
    {
      "type": "Feature",
      "properties": {
        "norad_id": 31036,
        "name": "FENGYUN 1C DEB",
        "group": "fengyun-1c-debris",
        "lat": 16.12625748654784,
        "lon": -75.1384272049457,
        "alt_km": 702.9357030430538,
        "timestamp": "2025-12-21T07:34:34.796682+00:00",
        "meta_object_name": "FENGYUN 1C DEB",
        "meta_object_id": "1999-025BEE",
        "meta_epoch": "2025-12-18T06:02:23.919072",
        "meta_mean_motion": 14.49084458,
        "meta_eccentricity": 0.01375082,
        "meta_inclination": 98.9148,
        "meta_ra_of_asc_node": 99.0243,
        "meta_arg_of_pericenter": 247.8939,
        "meta_mean_anomaly": 142.2947,
        "meta_ephemeris_type": 0,
        "meta_classification_type": "U",
        "meta_norad_cat_id": 31036,
        "meta_element_set_no": 999,
        "meta_rev_at_epoch": 57387,
        "meta_bstar": 0.00021841941,
        "meta_mean_motion_dot": 8.77e-06,
        "meta_mean_motion_ddot": 0,
        "tle_line1": "1 31036U 99025BEE 25352.25166573  .00000877  00000+0  21842-3 0  9991",
        "tle_line2": "2 31036  98.9148  99.0243 0137508 247.8939 142.2947 14.49084458573873"
      },
      "geometry": {
        "type": "Point",
        "coordinates": [
          -75.1384272049457,
          16.12625748654784
        ]
      }
    },
    {
      "type": "Feature",
      "properties": {
        "norad_id": 31038,
        "name": "FENGYUN 1C DEB",
        "group": "fengyun-1c-debris",
        "lat": -43.810762884901195,
        "lon": -108.892396803897,
        "alt_km": 689.9500364435098,
        "timestamp": "2025-12-21T07:34:34.796691+00:00",
        "meta_object_name": "FENGYUN 1C DEB",
        "meta_object_id": "1999-025BEG",
        "meta_epoch": "2025-12-17T16:10:31.099584",
        "meta_mean_motion": 14.45844316,
        "meta_eccentricity": 0.0084304,
        "meta_inclination": 99.014,
        "meta_ra_of_asc_node": 75.9992,
        "meta_arg_of_pericenter": 213.7595,
        "meta_mean_anomaly": 145.821,
        "meta_ephemeris_type": 0,
        "meta_classification_type": "U",
        "meta_norad_cat_id": 31038,
        "meta_element_set_no": 999,
        "meta_rev_at_epoch": 98306,
        "meta_bstar": 0.00045261885,
        "meta_mean_motion_dot": 1.626e-05,
        "meta_mean_motion_ddot": 0,
        "tle_line1": "1 31038U 99025BEG 25351.67397106  .00001626  00000+0  45262-3 0  9991",
        "tle_line2": "2 31038  99.0140  75.9992 0084304 213.7595 145.8210 14.45844316983069"
      },
      "geometry": {
        "type": "Point",
        "coordinates": [
          -108.892396803897,
          -43.810762884901195
        ]
      }
    },
    {
      "type": "Feature",
      "properties": {
        "norad_id": 31040,
        "name": "FENGYUN 1C DEB",
        "group": "fengyun-1c-debris",
        "lat": 81.22090121863654,
        "lon": -114.42873481294724,
        "alt_km": 816.0672281677653,
        "timestamp": "2025-12-21T07:34:34.796700+00:00",
        "meta_object_name": "FENGYUN 1C DEB",
        "meta_object_id": "1999-025BEJ",
        "meta_epoch": "2025-12-18T10:26:06.254304",
        "meta_mean_motion": 14.17678932,
        "meta_eccentricity": 0.00625828,
        "meta_inclination": 98.6582,
        "meta_ra_of_asc_node": 342.1389,
        "meta_arg_of_pericenter": 177.6674,
        "meta_mean_anomaly": 339.7033,
        "meta_ephemeris_type": 0,
        "meta_classification_type": "U",
        "meta_norad_cat_id": 31040,
        "meta_element_set_no": 999,
        "meta_rev_at_epoch": 96787,
        "meta_bstar": 0.00024558532,
        "meta_mean_motion_dot": 4.67e-06,
        "meta_mean_motion_ddot": 0,
        "tle_line1": "1 31040U 99025BEJ 25352.43479461  .00000467  00000+0  24559-3 0  9992",
        "tle_line2": "2 31040  98.6582 342.1389 0062582 177.6674 339.7033 14.17678932967872"
      },
      "geometry": {
        "type": "Point",
        "coordinates": [
          -114.42873481294724,
          81.22090121863654
        ]
      }
    },
    {
      "type": "Feature",
      "properties": {
        "norad_id": 31041,
        "name": "FENGYUN 1C DEB",
        "group": "fengyun-1c-debris",
        "lat": -22.633579445209275,
        "lon": 28.14475797104966,
        "alt_km": 790.3445042753783,
        "timestamp": "2025-12-21T07:34:34.796709+00:00",
        "meta_object_name": "FENGYUN 1C DEB",
        "meta_object_id": "1999-025BEK",
        "meta_epoch": "2025-12-20T01:11:55.931424",
        "meta_mean_motion": 14.17898364,
        "meta_eccentricity": 0.00871545,
        "meta_inclination": 99.204,
        "meta_ra_of_asc_node": 22.9571,
        "meta_arg_of_pericenter": 299.3991,
        "meta_mean_anomaly": 59.8503,
        "meta_ephemeris_type": 0,
        "meta_classification_type": "U",
        "meta_norad_cat_id": 31041,
        "meta_element_set_no": 999,
        "meta_rev_at_epoch": 95593,
        "meta_bstar": 0.0014183161,
        "meta_mean_motion_dot": 2.962e-05,
        "meta_mean_motion_ddot": 0,
        "tle_line1": "1 31041U 99025BEK 25354.04995291  .00002962  00000+0  14183-2 0  9999",
        "tle_line2": "2 31041  99.2040  22.9571 0087154 299.3991  59.8503 14.17898364955930"
      },
      "geometry": {
        "type": "Point",
        "coordinates": [
          28.14475797104966,
          -22.633579445209275
        ]
      }
    },
    {
      "type": "Feature",
      "properties": {
        "norad_id": 31043,
        "name": "FENGYUN 1C DEB",
        "group": "fengyun-1c-debris",
        "lat": 53.20664258071548,
        "lon": 0.9781269851059079,
        "alt_km": 851.5582264554587,
        "timestamp": "2025-12-21T07:34:34.796718+00:00",
        "meta_object_name": "FENGYUN 1C DEB",
        "meta_object_id": "1999-025BEM",
        "meta_epoch": "2025-12-20T07:32:08.571840",
        "meta_mean_motion": 14.08440648,
        "meta_eccentricity": 0.0041045,
        "meta_inclination": 98.7638,
        "meta_ra_of_asc_node": 11.9078,
        "meta_arg_of_pericenter": 342.6131,
        "meta_mean_anomaly": 34.9768,
        "meta_ephemeris_type": 0,
        "meta_classification_type": "U",
        "meta_norad_cat_id": 31043,
        "meta_element_set_no": 999,
        "meta_rev_at_epoch": 96094,
        "meta_bstar": 0.00030738724,
        "meta_mean_motion_dot": 4.88e-06,
        "meta_mean_motion_ddot": 0,
        "tle_line1": "1 31043U 99025BEM 25354.31398810  .00000488  00000+0  30739-3 0  9992",
        "tle_line2": "2 31043  98.7638  11.9078 0041045 342.6131  34.9768 14.08440648960948"
      },
      "geometry": {
        "type": "Point",
        "coordinates": [
          0.9781269851059079,
          53.20664258071548
        ]
      }
    },
    {
      "type": "Feature",
      "properties": {
        "norad_id": 31046,
        "name": "FENGYUN 1C DEB",
        "group": "fengyun-1c-debris",
        "lat": 34.70311239702505,
        "lon": -57.96375044353068,
        "alt_km": 665.7681423835702,
        "timestamp": "2025-12-21T07:34:34.796727+00:00",
        "meta_object_name": "FENGYUN 1C DEB",
        "meta_object_id": "1999-025BEQ",
        "meta_epoch": "2025-12-20T21:39:52.562880",
        "meta_mean_motion": 14.64082438,
        "meta_eccentricity": 0.00454041,
        "meta_inclination": 98.9685,
        "meta_ra_of_asc_node": 115.3082,
        "meta_arg_of_pericenter": 77.5729,
        "meta_mean_anomaly": 51.1771,
        "meta_ephemeris_type": 0,
        "meta_classification_type": "U",
        "meta_norad_cat_id": 31046,
        "meta_element_set_no": 999,
        "meta_rev_at_epoch": 96762,
        "meta_bstar": 0.0021926731,
        "meta_mean_motion_dot": 0.00011646,
        "meta_mean_motion_ddot": 0,
        "tle_line1": "1 31046U 99025BEQ 25354.90269170  .00011646  00000+0  21927-2 0  9992",
        "tle_line2": "2 31046  98.9685 115.3082 0045404  77.5729  51.1771 14.64082438967627"
      },
      "geometry": {
        "type": "Point",
        "coordinates": [
          -57.96375044353068,
          34.70311239702505
        ]
      }
    }
  ]
}